*******************************************************************************
Ephemeris / PORT_LOGIN Thu Oct  8 16:14:39 2015 Pasadena, USA    / Horizons    
*******************************************************************************
Target body name: Naiad (803)                     {source: NEP088}
Center body name: Neptune (899)                   {source: NEP081}
Center-site name: BODY CENTER
*******************************************************************************
Start time      : A.D. 1900-Jan-01 00:00:00.0000 CT 
Stop  time      : A.D. 2099-Dec-31 00:00:00.0000 CT 
Step-size       : 14400 minutes
*******************************************************************************
Center geodetic : 0.00000000,0.00000000,0.0000000 {E-lon(deg),Lat(deg),Alt(km)}
Center cylindric: 0.00000000,0.00000000,0.0000000 {E-lon(deg),Dxy(km),Dz(km)}
Center pole/equ : IAU_NEPTUNE                     {East-longitude -}
Center radii    : 24764.0 x 24764.0 x 24341.0 km  {Equator, meridian, pole}    
Output units    : AU-D                                                         
Output format   : 03
Output type     : GEOMETRIC cartesian states
Coordinate systm: Body Mean Equator and Node of Date                           
*******************************************************************************
JDCT 
   X     Y     Z
   VX    VY    VZ
   LT    RG    RR
*******************************************************************************
$$SOE
2430520.500000000 = A.D. 1942-Jun-10 00:00:00.0000 (CT)
  -2.962982133893176E-04  1.247068946039861E-04  2.553981629284873E-05
  -2.682276252124704E-03 -6.330207423656854E-03 -2.064818289262239E-04
   1.862519352715111E-06  3.224852291745217E-04  1.849490575564395E-07
2430530.500000000 = A.D. 1942-Jun-20 00:00:00.0000 (CT)
  -2.653857340899274E-04  1.814304805831361E-04  2.527875666740516E-05
  -3.896995764706171E-03 -5.662262796536823E-03 -2.569208776180949E-04
   1.862419949698875E-06  3.224680180757889E-04  1.257120171272190E-06
2430540.500000000 = A.D. 1942-Jun-30 00:00:00.0000 (CT)
  -2.237172394157428E-04  2.308635911117843E-04  2.475815155274824E-05
  -4.953115159043891E-03 -4.764451987231419E-03 -3.031773444009795E-04
   1.862193766618050E-06  3.224288556893423E-04  2.024148230188305E-06
2430550.500000000 = A.D. 1942-Jul-10 00:00:00.0000 (CT)
  -1.729443728745829E-04  2.710033310252464E-04  2.396936644544572E-05
  -5.807759330085734E-03 -3.673055664586599E-03 -3.449261575213677E-04
   1.861895723695653E-06  3.223772511570226E-04  2.299521865009678E-06
2430560.500000000 = A.D. 1942-Jul-20 00:00:00.0000 (CT)
  -1.150939248753277E-04  3.002041295027437E-04  2.290752350952944E-05
  -6.425992899523821E-03 -2.432322838551906E-03 -3.819539755778981E-04
   1.861598245870775E-06  3.223257444683055E-04  2.015861115992424E-06
2430570.500000000 = A.D. 1942-Jul-30 00:00:00.0000 (CT)
  -5.249488763849839E-05  3.172503531426224E-04  2.157132787742757E-05
  -6.782404498297008E-03 -1.092851331573208E-03 -4.141566707681916E-04
   1.861373684532762E-06  3.222868628779223E-04  1.241694562489908E-06
2430580.500000000 = A.D. 1942-Aug-09 00:00:00.0000 (CT)
   1.231199286046502E-05  3.214154429336179E-04  1.996311857194348E-05
  -6.862395088415811E-03  2.904569375316196E-04 -4.415316575151544E-04
   1.861276698837740E-06  3.222700703253832E-04  1.651939421692818E-07
2430590.500000000 = A.D. 1942-Aug-19 00:00:00.0000 (CT)
   7.667959729932991E-05  3.125013038243926E-04  1.808928720714867E-05
  -6.662979977403814E-03  1.660807054861917E-03 -4.641648075021049E-04
   1.861330906743597E-06  3.222794561333308E-04 -9.515404852661171E-07
2430600.500000000 = A.D. 1942-Aug-29 00:00:00.0000 (CT)
   1.379689655688090E-04  2.908527268387121E-04  1.596103590935821E-05
  -6.192949248688944E-03  2.962115847763349E-03 -4.822128393824449E-04
   1.861523106704350E-06  3.223127345249354E-04 -1.836559681149689E-06
2430610.500000000 = A.D. 1942-Sep-08 00:00:00.0000 (CT)
   1.936650193068022E-04  2.573444410064883E-04  1.359528045070454E-05
  -5.472335480649554E-03  4.141563647179397E-03 -4.958831073368701E-04
   1.861806508289421E-06  3.223618039882817E-04 -2.274601838863055E-06
2430620.500000000 = A.D. 1942-Sep-18 00:00:00.0000 (CT)
   2.414852379436272E-04  2.133419720571902E-04  1.101540233545018E-05
  -4.531269781081091E-03  5.151849955226517E-03 -5.054131820148298E-04
   1.862112166902554E-06  3.224147271365764E-04 -2.159521781402972E-06
2430630.500000000 = A.D. 1942-Sep-28 00:00:00.0000 (CT)
   2.794747120236357E-04  1.606405054358192E-04  8.251548793275773E-06
  -3.408411004749872E-03  5.952991673764405E-03 -5.110523252788487E-04
   1.862365788189459E-06  3.224586403011360E-04 -1.519779030954344E-06
2430640.500000000 = A.D. 1942-Oct-08 00:00:00.0000 (CT)
   3.060837812161091E-04  1.013874122819648E-04  5.340273986381464E-06
  -2.149165536602699E-03  6.513626214460734E-03 -5.130460698583860E-04
   1.862505777187586E-06  3.224828786447951E-04 -5.110783801326253E-07
2430650.500000000 = A.D. 1942-Oct-18 00:00:00.0000 (CT)
   3.202271551304155E-04  3.799376895357859E-05  2.323477970045008E-06
  -8.038676554870092E-04  6.811892477054386E-03 -5.116240511637912E-04
   1.862498155707327E-06  3.224815590263951E-04  6.216457171800691E-07
2430660.500000000 = A.D. 1942-Oct-28 00:00:00.0000 (CT)
   3.213249869400952E-04 -2.696133411324611E-05 -7.532198833882217E-07
   5.740084194584952E-04  6.836014200324743E-03 -5.069904654996765E-04
   1.862344773275006E-06  3.224550016814923E-04  1.603511574519442E-06
2430670.500000000 = A.D. 1942-Nov-07 00:00:00.0000 (CT)
   3.093264346850557E-04 -9.083158633415992E-05 -3.842396131669675E-06
   1.929634357078768E-03  6.584685766976534E-03 -4.993163369985342E-04
   1.862082860519306E-06  3.224096528936140E-04  2.196067487216437E-06
2430680.500000000 = A.D. 1942-Nov-17 00:00:00.0000 (CT)
   2.847151693828430E-04 -1.510080740360023E-04 -6.896693786924532E-06
   3.208695462383506E-03  6.067278160712732E-03 -4.887331721409430E-04
   1.861776030825504E-06  3.223565269789869E-04  2.255035501009222E-06
2430690.500000000 = A.D. 1942-Nov-27 00:00:00.0000 (CT)
   2.484949835348519E-04 -2.050258834482994E-04 -9.870357854488354E-06
   4.359406981736078E-03  5.303785764462596E-03 -4.753283085242545E-04
   1.861498869796741E-06  3.223085380344703E-04  1.765589815710551E-06
2430700.500000000 = A.D. 1942-Dec-07 00:00:00.0000 (CT)
   2.021531555207612E-04 -2.506690929334307E-04 -1.272027181646685E-05
   5.334663211916670E-03  4.324372955640102E-03 -4.591429190747762E-04
   1.861318809318434E-06  3.222773615290946E-04  8.464087122160281E-07
2430710.500000000 = A.D. 1942-Dec-17 00:00:00.0000 (CT)
   1.476002304404685E-04 -2.860684245193309E-04 -1.540649714844425E-05
   6.094193502382420E-03  3.168388063221901E-03 -4.401738366591499E-04
   1.861279686863079E-06  3.222705876859328E-04 -2.788937477318448E-07
2430720.500000000 = A.D. 1942-Dec-27 00:00:00.0000 (CT)
   8.708739097785698E-05 -3.097844471963159E-04 -1.789246941921711E-05
   6.606513644963934E-03  1.882794823853015E-03 -4.183799431919050E-04
   1.861391030263374E-06  3.222898661980776E-04 -1.336270847655244E-06
2430730.500000000 = A.D. 1943-Jan-06 00:00:00.0000 (CT)
   2.310585778123448E-05 -3.208695177246739E-04 -2.014509308348688E-05
   6.850443776631310E-03  5.200962655267404E-04 -3.936929541287769E-04
   1.861625725988963E-06  3.223305025032751E-04 -2.068302678054213E-06
2430740.500000000 = A.D. 1943-Jan-16 00:00:00.0000 (CT)
  -4.172444362609031E-05 -3.189038388510302E-04 -2.213497592521882E-05
   6.816027588708031E-03 -8.640608250995614E-04 -3.660314185568075E-04
   1.861926651922791E-06  3.223826062135497E-04 -2.297109403497380E-06
2430750.500000000 = A.D. 1943-Jan-26 00:00:00.0000 (CT)
  -1.047685088079067E-04 -3.040044816821879E-04 -2.383695551147483E-05
   6.504806334857122E-03 -2.213360627655637E-03 -3.353161113468433E-04
   1.862220624369126E-06  3.224335059647868E-04 -1.967519382448014E-06
2430760.500000000 = A.D. 1943-Feb-05 00:00:00.0000 (CT)
  -1.634845964403179E-04 -2.768097289195752E-04 -2.523092428310766E-05
   5.929522647213829E-03 -3.473161103901226E-03 -3.014850065337175E-04
   1.862436213633964E-06  3.224708340888555E-04 -1.160067784980428E-06
2430770.500000000 = A.D. 1943-Feb-15 00:00:00.0000 (CT)
  -2.155222175213073E-04 -2.384433927082264E-04 -2.630280621222529E-05
   5.113401902147122E-03 -4.592584959062086E-03 -2.645066553858705E-04
   1.862521075154896E-06  3.224855274057257E-04 -7.104439882709996E-08
2430780.500000000 = A.D. 1943-Feb-25 00:00:00.0000 (CT)
  -2.588077377649658E-04 -1.904641520350908E-04 -2.704542914230191E-05
   4.089157279425475E-03 -5.526344954178685E-03 -2.243917210670521E-04
   1.862454613922148E-06  3.224740199999943E-04  1.035218558179583E-06
2430790.500000000 = A.D. 1943-Mar-07 00:00:00.0000 (CT)
  -2.916178407156889E-04 -1.348036117782812E-04 -2.745901224933715E-05
   2.897799667059346E-03 -6.236360381905628E-03 -1.812032023221197E-04
   1.862252958947095E-06  3.224391045234118E-04  1.890226839744268E-06
2430800.500000000 = A.D. 1943-Mar-17 00:00:00.0000 (CT)
  -3.126417653946252E-04 -7.369463455257889E-05 -2.755105935086156E-05
   1.587244813478033E-03 -6.693226050610854E-03 -1.350661640393578E-04
   1.861965067900915E-06  3.223892577339710E-04  2.286189947069188E-06
2430810.500000000 = A.D. 1943-Mar-27 00:00:00.0000 (CT)
  -3.210322082789442E-04 -9.589778045751422E-06 -2.733559537105961E-05
   2.106464941412817E-04 -6.877535307384036E-03 -8.617746919453957E-05
   1.861660885485039E-06  3.223365901813080E-04  2.126473903743537E-06
2430820.500000000 = A.D. 1943-Apr-06 00:00:00.0000 (CT)
  -3.164427941906627E-04  5.493062118750521E-05 -2.683185815715933E-05
  -1.175617509281353E-03 -6.780966519829001E-03 -3.481522550703907E-05
   1.861414379297215E-06  3.222939089579653E-04  1.449433359137833E-06
